NORAD_CAT_ID,OBJECT_NAME,OBJECT_TYPE,EPOCH,MEAN_MOTION,ECCENTRICITY,INCLINATION,RA_OF_ASC_NODE,ARG_OF_PERICENTER,MEAN_ANOMALY,BSTAR,MEAN_MOTION_DOT,MEAN_MOTION_DDOT,TLE_LINE0,TLE_LINE1,TLE_LINE2,SEMIMAJOR_AXIS,PERIOD,APOGEE,PERIGEE,DECAYED
56782.0,STARLINK-6352,PAYLOAD,2023-10-14 09:40:48,15.69920405,0.0003279,69.9998,30.5712,268.2673,91.8147,2.0984e-06,4e-07,0.0,0 STARLINK-6352,1 56782U 23078R   23287.40333536  .00000040  00000-0  20984-5 0  9999,2 56782  69.9998  30.5712 0003279 268.2673  91.8147 15.69920405 21670,6737.262,91.724,361.336,356.918,0.0
56782.0,STARLINK-6352,PAYLOAD,2023-10-14 15:47:49,15.69907041,0.0003096,70.0011,29.8542,267.8602,92.2239,-1.904e-05,-2.499e-05,0.0,0 STARLINK-6352,1 56782U 23078R   23287.65820959 -.00002499  00000-0 -19040-4 0  9998,2 56782  70.0011  29.8542 0003096 267.8602  92.2239 15.69907041 21718,6737.3,91.725,361.251,357.079,0.0
56782.0,STARLINK-6352,PAYLOAD,2023-10-15 10:08:49,15.69935409,0.0003477,69.9972,27.7045,263.4443,96.6357,1.1419e-05,1.161e-05,0.0,0 STARLINK-6352,1 56782U 23078R   23288.42279524  .00001161  00000-0  11419-4 0  9995,2 56782  69.9972  27.7045 0003477 263.4443  96.6357 15.69935409 21835,6737.219,91.724,361.426,356.741,0.0
56782.0,STARLINK-6352,PAYLOAD,2023-10-15 14:44:04,15.69933496,0.0003606,69.9974,27.1675,266.7102,93.3681,9.3045e-06,9.06e-06,0.0,0 STARLINK-6352,1 56782U 23078R   23288.61394617  .00000906  00000-0  93045-5 0  9999,2 56782  69.9974  27.1675 0003606 266.7102  93.3681 15.69933496 21605,6737.224,91.724,361.519,356.66,0.0
56782.0,STARLINK-6352,PAYLOAD,2023-10-15 16:15:50,15.69932774,0.0003624,69.9973,26.9882,267.7689,92.3092,8.5405e-06,8.14e-06,0.0,0 STARLINK-6352,1 56782U 23078R   23288.67766320  .00000814  00000-0  85405-5 0  9998,2 56782  69.9973  26.9882 0003624 267.7689  92.3092 15.69932774 21616,6737.226,91.724,361.533,356.65,0.0
56782.0,STARLINK-6352,PAYLOAD,2023-10-15 23:54:36,15.69922308,0.0003334,69.9978,26.0924,267.762,92.3194,9.2137e-06,8.95e-06,0.0,0 STARLINK-6352,1 56782U 23078R   23288.99625332  .00000895  00000-0  92137-5 0  9999,2 56782  69.9978  26.0924 0003334 267.7620  92.3194 15.69922308 21921,6737.256,91.724,361.367,356.875,0.0
56782.0,STARLINK-6352,PAYLOAD,2023-10-16 09:05:07,15.69917674,0.0003394,69.998,25.0165,271.6435,88.4372,2.1774e-05,2.405e-05,0.0,0 STARLINK-6352,1 56782U 23078R   23289.37855372  .00002405  00000-0  21774-4 0  9998,2 56782  69.9980  25.0165 0003394 271.6435  88.4372 15.69917674 21726,6737.27,91.725,361.421,356.848,0.0
56782.0,STARLINK-6352,PAYLOAD,2023-10-16 15:12:07,15.6991662,0.0003328,69.998,24.3002,268.4328,91.6486,1.5767e-05,1.683e-05,0.0,0 STARLINK-6352,1 56782U 23078R   23289.63342307  .00001683  00000-0  15767-4 0  9998,2 56782  69.9980  24.3002 0003328 268.4328  91.6486 15.69916620 21766,6737.273,91.725,361.38,356.895,0.0
56782.0,STARLINK-6352,PAYLOAD,2023-10-17 09:33:08,15.69943842,0.0003391,69.9985,22.1511,276.8552,83.2258,-2.9975e-05,-3.818e-05,0.0,0 STARLINK-6352,1 56782U 23078R   23290.39801726 -.00003818  00000-0 -29975-4 0  9998,2 56782  69.9985  22.1511 0003391 276.8552  83.2258 15.69943842 22147,6737.195,91.723,361.344,356.775,0.0
56782.0,STARLINK-6352,PAYLOAD,2023-10-17 12:36:39,15.69919821,0.0003567,69.9979,21.7928,271.9235,88.1552,-7.1219e-07,-2.99e-06,0.0,0 STARLINK-6352,1 56782U 23078R   23290.52545792 -.00000299  00000-0 -71219-6 0  9991,2 56782  69.9979  21.7928 0003567 271.9235  88.1552 15.69919821 21900,6737.263,91.724,361.532,356.725,0.0
56782.0,STARLINK-6352,PAYLOAD,2023-10-17 23:18:55,15.6992388,0.0003145,69.9984,20.5388,269.7022,90.3813,8.0862e-06,7.6e-06,0.0,0 STARLINK-6352,1 56782U 23078R   23290.97147061  .00000760  00000-0  80862-5 0  9991,2 56782  69.9984  20.5388 0003145 269.7022  90.3813 15.69923880 22236,6737.252,91.724,361.236,356.998,0.0
56782.0,STARLINK-6352,PAYLOAD,2023-10-19 05:54:09,15.69825254,1.44e-05,69.9989,16.954,119.9236,240.1974,-0.00015053,-0.00018191,0.0,0 STARLINK-6352,1 56782U 23078R   23292.24593820 -.00018191  00000-0 -15053-3 0  9998,2 56782  69.9989  16.9540 0000144 119.9236 240.1974 15.69825254 22430,6737.534,91.73,359.496,359.302,0.0
56782.0,STARLINK-6352,PAYLOAD,2023-10-19 13:32:48,15.69903749,0.0002746,69.9984,16.0607,257.9108,102.1781,1.2908e-05,1.339e-05,0.0,0 STARLINK-6352,1 56782U 23078R   23292.56445132  .00001339  00000-0  12908-4 0  9996,2 56782  69.9984  16.0607 0002746 257.9108 102.1781 15.69903749 22227,6737.309,91.725,361.024,357.324,0.0
56782.0,STARLINK-6352,PAYLOAD,2023-10-20 07:55:07,15.68775468,0.0003361,69.9969,13.9141,120.4175,239.7353,-0.0013065,-0.00147442,0.0,0 STARLINK-6352,1 56782U 23078R   23293.32994786 -.00147442  00000-0 -13065-2 0  9996,2 56782  69.9969  13.9141 0003361 120.4175 239.7353 15.68775468 22609,6740.539,91.791,364.67,360.139,0.0
56782.0,STARLINK-6352,PAYLOAD,2023-10-20 22:00:00,15.69979805,0.0003338,69.9995,12.2572,278.0695,162.4383,-0.00087692,-0.00104594,0.0,0 STARLINK-6352,1 56782U 23078R   23293.91667824 -.00104594  00000-0 -87692-3 0  9990,2 56782  69.9995  12.2572 0003338 278.0695 162.4383 15.69979805 22695,6737.092,91.721,361.206,356.708,0.0
56782.0,STARLINK-6352,PAYLOAD,2023-10-21 00:00:02,15.69923684,0.0003347,69.9997,12.0227,277.188,274.2439,-8.7663e-05,-0.0001074,0.0,0 STARLINK-6352,1 56782U 23078R   23294.00002315 -.00010740  00000-0 -87663-4 0  9997,2 56782  69.9997  12.0227 0003347 277.1880 274.2439 15.69923684 22708,6737.252,91.724,361.372,356.862,0.0
56782.0,STARLINK-6352,PAYLOAD,2023-10-21 11:25:12,15.6999451,0.0002128,69.9977,10.684,261.2294,98.8661,1.3367e-05,1.4e-05,0.0,0 STARLINK-6352,1 56782U 23078R   23294.47584386  .00001400  00000-0  13367-4 0  9992,2 56782  69.9977  10.6840 0002128 261.2294  98.8661 15.69994510 22781,6737.05,91.72,360.348,357.481,0.0
56782.0,STARLINK-6352,PAYLOAD,2023-10-21 14:27:56,15.70582636,0.0005047,69.9979,10.3238,245.3271,114.7399,0.00071905,0.00089625,0.0,0 STARLINK-6352,1 56782U 23078R   23294.60274030  .00089625  00000-0  71905-3 0  9995,2 56782  69.9979  10.3238 0005047 245.3271 114.7399 15.70582636 22546,6735.368,91.686,360.632,353.833,0.0
56782.0,STARLINK-6352,PAYLOAD,2023-10-22 04:00:00,15.69893526,0.0003358,70.0001,8.7424,276.1379,26.9043,0.00058348,0.00070448,0.0,0 STARLINK-6352,1 56782U 23078R   23295.16667824  .00070448  00000-0  58348-3 0  9993,2 56782  70.0001   8.7424 0003358 276.1379  26.9043 15.69893526 22896,6737.339,91.726,361.466,356.941,0.0
56782.0,STARLINK-6352,PAYLOAD,2023-10-22 08:50:34,15.69261491,0.0004814,69.9987,8.1794,155.888,204.2541,-0.00075172,-0.00087287,0.0,0 STARLINK-6352,1 56782U 23078R   23295.36845532 -.00087287  00000-0 -75172-3 0  9994,2 56782  69.9987   8.1794 0004814 155.8880 204.2541 15.69261491 22926,6739.148,91.763,364.257,357.768,0.0
56782.0,STARLINK-6352,PAYLOAD,2023-10-22 20:00:01,15.69962817,0.0003417,69.9996,6.8677,277.7582,191.9329,-0.0005396,-0.00064702,0.0,0 STARLINK-6352,1 56782U 23078R   23295.83334491 -.00064702  00000-0 -53960-3 0  9991,2 56782  69.9996   6.8677 0003417 277.7582 191.9329 15.69962817 22995,6737.14,91.722,361.307,356.703,0.0
56782.0,STARLINK-6352,PAYLOAD,2023-10-22 22:00:00,15.69950104,0.0003399,69.9998,6.6334,275.2148,305.3203,-0.00045822,-0.0005501,0.0,0 STARLINK-6352,1 56782U 23078R   23295.91667824 -.00055010  00000-0 -45822-3 0  9999,2 56782  69.9998   6.6334 0003399 275.2148 305.3203 15.69950104  5523,6737.177,91.723,361.332,356.752,0.0
56782.0,STARLINK-6352,PAYLOAD,2023-10-23 00:00:02,15.69910209,0.0003409,69.9998,6.3989,272.0197,59.4306,0.0001476,0.00017562,0.0,0 STARLINK-6352,1 56782U 23078R   23296.00002315  .00017562  00000-0  14760-3 0  9993,2 56782  69.9998   6.3989 0003409 272.0197  59.4306 15.69910209 23025,6737.291,91.725,361.453,356.859,0.0
56782.0,STARLINK-6352,PAYLOAD,2023-10-23 12:21:20,15.69930161,0.0003146,69.9993,4.9515,270.8811,89.2024,1.2134e-06,-6.7e-07,0.0,0 STARLINK-6352,1 56782U 23078R   23296.51482325 -.00000067  00000-0  12134-5 0  9990,2 56782  69.9993   4.9515 0003146 270.8811  89.2024 15.69930161 22842,6737.234,91.724,361.218,356.979,0.0
56782.0,STARLINK-6352,PAYLOAD,2023-10-24 03:38:51,15.69931412,0.000226,70.0021,3.1603,273.7636,86.3301,1.7461e-05,1.888e-05,0.0,0 STARLINK-6352,1 56782U 23078R   23297.15198735  .00001888  00000-0  17461-4 0  9998,2 56782  70.0021   3.1603 0002260 273.7636  86.3301 15.69931412 23206,6737.23,91.724,360.618,357.573,0.0
56782.0,STARLINK-6352,PAYLOAD,2023-10-24 11:17:33,15.69966635,0.0001486,70.001,2.2645,256.3395,103.7636,0.00015632,0.00018655,0.0,0 STARLINK-6352,1 56782U 23078R   23297.47052265  .00018655  00000-0  15632-3 0  9997,2 56782  70.0010   2.2645 0001486 256.3395 103.7636 15.69966635 23253,6737.129,91.722,359.996,357.993,0.0
56782.0,STARLINK-6352,PAYLOAD,2023-10-25 14:00:01,15.69673194,0.0003492,70.0004,359.1353,258.1258,269.2151,0.0024035,0.00296149,0.0,0 STARLINK-6352,1 56782U 23078R   23298.58334491  .00296149  00000-0  24035-2 0  9996,2 56782  70.0004 359.1353 0003492 258.1258 269.2151 15.69673194 23427,6737.969,91.739,362.187,357.481,0.0
56782.0,STARLINK-6352,PAYLOAD,2023-10-26 00:00:00,15.69831641,0.000354,70.0002,357.9646,249.9854,111.3468,0.0011328,0.00137731,0.0,0 STARLINK-6352,1 56782U 23078R   23299.00001157  .00137731  00000-0  11328-2 0  9996,2 56782  70.0002 357.9646 0003540 249.9854 111.3468 15.69831641 23498,6737.516,91.73,361.766,356.996,0.0
56782.0,STARLINK-6352,PAYLOAD,2023-10-26 07:38:27,15.69923025,0.0002311,69.9989,357.0693,234.4203,125.6778,-8.2165e-06,-1.2e-05,0.0,0 STARLINK-6352,1 56782U 23078R   23299.31837060 -.00001200  00000-0 -82165-5 0  9993,2 56782  69.9989 357.0693 0002311 234.4203 125.6778 15.69923025 23540,6737.254,91.724,360.676,357.562,0.0
56782.0,STARLINK-6352,PAYLOAD,2023-10-26 13:45:22,15.69993742,0.000276,69.9984,356.3524,269.0729,91.015,7.3806e-05,8.696e-05,0.0,0 STARLINK-6352,1 56782U 23078R   23299.57317932  .00008696  00000-0  73806-4 0  9997,2 56782  69.9984 356.3524 0002760 269.0729  91.0150 15.69993742 23324,6737.052,91.72,360.776,357.057,0.0
